{
  "norad_id": 57997,
  "name": "STARLINK-30523",
  "history": [
    {
      "epoch": "2026-03-28T16:48:40.821408Z",
      "apogee_km": 484.1358708483813,
      "perigee_km": 481.92657468065045,
      "latitude_deg": 5.419783198436119e-06,
      "longitude_deg": -118.57463644115384,
      "height_km": 482.9577933375526,
      "semi_major_axis_km": 6861.168222764515,
      "eccentricity": 0.000161,
      "inclination_deg": 43.0063,
      "raan_deg": 319.7126,
      "arg_perigee_deg": 262.2465,
      "mean_anomaly_deg": 97.8204,
      "mean_motion_rev_day": 15.27585969
    },
    {
      "epoch": "2026-03-29T00:39:28.288800Z",
      "apogee_km": 483.94830727420594,
      "perigee_km": 482.174001431491,
      "latitude_deg": -1.816790551967075e-05,
      "longitude_deg": 121.55841243260221,
      "height_km": 483.03570946444455,
      "semi_major_axis_km": 6861.198154352848,
      "eccentricity": 0.0001293,
      "inclination_deg": 43.0053,
      "raan_deg": 317.8657,
      "arg_perigee_deg": 257.1432,
      "mean_anomaly_deg": 102.9275,
      "mean_motion_rev_day": 15.27575973
    },
    {
      "epoch": "2026-03-30T00:11:49.023456Z",
      "apogee_km": 483.8826747911635,
      "perigee_km": 482.21773910352476,
      "latitude_deg": 1.2026957545529179e-05,
      "longitude_deg": 121.965734534186,
      "height_km": 483.00323179371003,
      "semi_major_axis_km": 6861.187206947344,
      "eccentricity": 0.00012133,
      "inclination_deg": 43.0056,
      "raan_deg": 312.3261,
      "arg_perigee_deg": 257.8011,
      "mean_anomaly_deg": 102.2705,
      "mean_motion_rev_day": 15.27579629
    },
    {
      "epoch": "2026-03-30T15:53:22.766784Z",
      "apogee_km": 483.8540976223576,
      "perigee_km": 482.2345843786279,
      "latitude_deg": -7.159025989024989e-06,
      "longitude_deg": -117.76185892192353,
      "height_km": 483.05260783331414,
      "semi_major_axis_km": 6861.1813410004925,
      "eccentricity": 0.00011802,
      "inclination_deg": 43.0041,
      "raan_deg": 308.6336,
      "arg_perigee_deg": 253.3978,
      "mean_anomaly_deg": 106.6744,
      "mean_motion_rev_day": 15.27581588
    },
    {
      "epoch": "2026-03-31T13:51:34.295328Z",
      "apogee_km": 484.0680877451132,
      "perigee_km": 482.0536400522733,
      "latitude_deg": 4.6437100496786073e-05,
      "longitude_deg": -93.38280663351972,
      "height_km": 483.0776215638518,
      "semi_major_axis_km": 6861.197863898693,
      "eccentricity": 0.0001468,
      "inclination_deg": 43.0048,
      "raan_deg": 303.4629,
      "arg_perigee_deg": 256.2421,
      "mean_anomaly_deg": 103.8268,
      "mean_motion_rev_day": 15.2757607
    },
    {
      "epoch": "2026-03-31T23:16:30.883296Z",
      "apogee_km": 484.24514259657826,
      "perigee_km": 481.91918929932217,
      "latitude_deg": 5.772936305645569e-05,
      "longitude_deg": 122.77833292251461,
      "height_km": 483.3023207553989,
      "semi_major_axis_km": 6861.21916594795,
      "eccentricity": 0.0001695,
      "inclination_deg": 43.0054,
      "raan_deg": 301.2465,
      "arg_perigee_deg": 247.621,
      "mean_anomaly_deg": 112.4463,
      "mean_motion_rev_day": 15.27568956
    }
  ]
}